{"type": "FeatureCollection", "features": [ {"type": "Feature", "properties": {"norad_id": 33825, "name": "COSMOS 2251 DEB", "group": "cosmos-2251-debris", "lat": -56.758059806071095, "lon": -24.687024607932262, "alt_km": 613.9757635095248, "timestamp": "2025-12-26T08:37:54.972341+00:00", "meta": {"OBJECT_NAME": "COSMOS 2251 DEB", "OBJECT_ID": "1993-036BS", "EPOCH": "2025-12-26T02:39:03.004416", "MEAN_MOTION": 14.69899442, "ECCENTRICITY": 0.0085131, "INCLINATION": 73.9852, "RA_OF_ASC_NODE": 1.7873, "ARG_OF_PERICENTER": 325.776, "MEAN_ANOMALY": 96.0283, "EPHEMERIS_TYPE": 0, "CLASSIFICATION_TYPE": "U", "NORAD_CAT_ID": 33825, "ELEMENT_SET_NO": 999, "REV_AT_EPOCH": 89076, "BSTAR": 0.0010835, "MEAN_MOTION_DOT": 6.827e-05, "MEAN_MOTION_DDOT": 0}, "tle": {"line1": "1 33825U 93036BS  25360.11045144  .00006827  00000+0  10835-2 0  9999", "line2": "2 33825  73.9852   1.7873 0085131 325.7760  96.0283 14.69899442890765"}}, "geometry": {"type": "Point", "coordinates": [-24.687024607932262, -56.758059806071095]}}, {"type": "Feature", "properties": {"norad_id": 33826, "name": "COSMOS 2251 DEB", "group": "cosmos-2251-debris", "lat": 22.67834881227339, "lon": 31.12630837041811, "alt_km": 674.2395412099158, "timestamp": "2025-12-26T08:37:54.972352+00:00", "meta": {"OBJECT_NAME": "COSMOS 2251 DEB", "OBJECT_ID": "1993-036BT", "EPOCH": "2025-12-26T03:50:11.224032", "MEAN_MOTION": 14.51777187, "ECCENTRICITY": 0.0082518, "INCLINATION": 74.064, "RA_OF_ASC_NODE": 24.6447, "ARG_OF_PERICENTER": 64.444, "MEAN_ANOMALY": 356.037, "EPHEMERIS_TYPE": 0, "CLASSIFICATION_TYPE": "U", "NORAD_CAT_ID": 33826, "ELEMENT_SET_NO": 999, "REV_AT_EPOCH": 87964, "BSTAR": 0.00043901, "MEAN_MOTION_DOT": 1.816e-05, "MEAN_MOTION_DDOT": 0}, "tle": {"line1": "1 33826U 93036BT  25360.15985213  .00001816  00000+0  43901-3 0  9998", "line2": "2 33826  74.0640  24.6447 0082518  64.4440 356.0370 14.51777187879644"}}, "geometry": {"type": "Point", "coordinates": [31.12630837041811, 22.67834881227339]}}, {"type": "Feature", "properties": {"norad_id": 33828, "name": "COSMOS 2251 DEB", "group": "cosmos-2251-debris", "lat": -71.97399515398752, "lon": 151.2263385011697, "alt_km": 730.0977527968598, "timestamp": "2025-12-26T08:37:54.972363+00:00", "meta": {"OBJECT_NAME": "COSMOS 2251 DEB", "OBJECT_ID": "1993-036BV", "EPOCH": "2025-12-26T01:24:06.259392", "MEAN_MOTION": 14.44369409, "ECCENTRICITY": 0.0029519, "INCLINATION": 74.0448, "RA_OF_ASC_NODE": 213.3232, "ARG_OF_PERICENTER": 284.2143, "MEAN_ANOMALY": 228.4887, "EPHEMERIS_TYPE": 0, "CLASSIFICATION_TYPE": "U", "NORAD_CAT_ID": 33828, "ELEMENT_SET_NO": 999, "REV_AT_EPOCH": 88505, "BSTAR": 0.00037327, "MEAN_MOTION_DOT": 1.266e-05, "MEAN_MOTION_DDOT": 0}, "tle": {"line1": "1 33828U 93036BV  25360.05840578  .00001266  00000+0  37327-3 0  9997", "line2": "2 33828  74.0448 213.3232 0029519 284.2143 228.4887 14.44369409885058"}}, "geometry": {"type": "Point", "coordinates": [151.2263385011697, -71.97399515398752]}}, {"type": "Feature", "properties": {"norad_id": 33830, "name": "COSMOS 2251 DEB", "group": "cosmos-2251-debris", "lat": -46.4038544048714, "lon": -173.84212909376308, "alt_km": 615.5117844847146, "timestamp": "2025-12-26T08:37:54.972373+00:00", "meta": {"OBJECT_NAME": "COSMOS 2251 DEB", "OBJECT_ID": "1993-036BX", "EPOCH": "2025-12-26T01:15:54.396288", "MEAN_MOTION": 14.77034693, "ECCENTRICITY": 0.0042815, "INCLINATION": 74.0307, "RA_OF_ASC_NODE": 204.262, "ARG_OF_PERICENTER": 321.6548, "MEAN_ANOMALY": 158.1529, "EPHEMERIS_TYPE": 0, "CLASSIFICATION_TYPE": "U", "NORAD_CAT_ID": 33830, "ELEMENT_SET_NO": 999, "REV_AT_EPOCH": 89668, "BSTAR": 0.00071378, "MEAN_MOTION_DOT": 5.081e-05, "MEAN_MOTION_DDOT": 0}, "tle": {"line1": "1 33830U 93036BX  25360.05271292  .00005081  00000+0  71378-3 0  9994", "line2": "2 33830  74.0307 204.2620 0042815 321.6548 158.1529 14.77034693896687"}}, "geometry": {"type": "Point", "coordinates": [-173.84212909376308, -46.4038544048714]}}, {"type": "Feature", "properties": {"norad_id": 33832, "name": "COSMOS 2251 DEB", "group": "cosmos-2251-debris", "lat": -67.63850107464947, "lon": 139.95411363021796, "alt_km": 692.6153856108231, "timestamp": "2025-12-26T08:37:54.972383+00:00", "meta": {"OBJECT_NAME": "COSMOS 2251 DEB", "OBJECT_ID": "1993-036BZ", "EPOCH": "2025-12-25T23:49:00.240960", "MEAN_MOTION": 14.60802512, "ECCENTRICITY": 0.0023996, "INCLINATION": 74.0532, "RA_OF_ASC_NODE": 184.6855, "ARG_OF_PERICENTER": 213.2053, "MEAN_ANOMALY": 301.6425, "EPHEMERIS_TYPE": 0, "CLASSIFICATION_TYPE": "U", "NORAD_CAT_ID": 33832, "ELEMENT_SET_NO": 999, "REV_AT_EPOCH": 88618, "BSTAR": 0.0014069, "MEAN_MOTION_DOT": 6.876e-05, "MEAN_MOTION_DDOT": 0}, "tle": {"line1": "1 33832U 93036BZ  25359.99236390  .00006876  00000+0  14069-2 0  9993", "line2": "2 33832  74.0532 184.6855 0023996 213.2053 301.6425 14.60802512886185"}}, "geometry": {"type": "Point", "coordinates": [139.95411363021796, -67.63850107464947]}}, {"type": "Feature", "properties": {"norad_id": 33835, "name": "COSMOS 2251 DEB", "group": "cosmos-2251-debris", "lat": -18.745639413572434, "lon": -99.375693602165, "alt_km": 680.121181037006, "timestamp": "2025-12-26T08:37:54.972393+00:00", "meta": {"OBJECT_NAME": "COSMOS 2251 DEB", "OBJECT_ID": "1993-036CC", "EPOCH": "2025-12-25T15:59:34.374912", "MEAN_MOTION": 14.62370337, "ECCENTRICITY": 0.0053708, "INCLINATION": 74.0572, "RA_OF_ASC_NODE": 76.383, "ARG_OF_PERICENTER": 126.0837, "MEAN_ANOMALY": 24.3645, "EPHEMERIS_TYPE": 0, "CLASSIFICATION_TYPE": "U", "NORAD_CAT_ID": 33835, "ELEMENT_SET_NO": 999, "REV_AT_EPOCH": 88978, "BSTAR": 0.00092914, "MEAN_MOTION_DOT": 4.768e-05, "MEAN_MOTION_DDOT": 0}, "tle": {"line1": "1 33835U 93036CC  25359.66637008  .00004768  00000+0  92914-3 0  9995", "line2": "2 33835  74.0572  76.3830 0053708 126.0837  24.3645 14.62370337889786"}}, "geometry": {"type": "Point", "coordinates": [-99.375693602165, -18.745639413572434]}}, {"type": "Feature", "properties": {"norad_id": 33836, "name": "COSMOS 2251 DEB", "group": "cosmos-2251-debris", "lat": -4.28218413544526, "lon": -129.15993638233257, "alt_km": 631.4190163187313, "timestamp": "2025-12-26T08:37:54.972403+00:00", "meta": {"OBJECT_NAME": "COSMOS 2251 DEB", "OBJECT_ID": "1993-036CD", "EPOCH": "2025-12-26T02:42:29.806272", "MEAN_MOTION": 14.79839055, "ECCENTRICITY": 0.0022936, "INCLINATION": 73.9961, "RA_OF_ASC_NODE": 232.5585, "ARG_OF_PERICENTER": 80.6181, "MEAN_ANOMALY": 40.9444, "EPHEMERIS_TYPE": 0, "CLASSIFICATION_TYPE": "U", "NORAD_CAT_ID": 33836, "ELEMENT_SET_NO": 999, "REV_AT_EPOCH": 64286, "BSTAR": 0.0010374, "MEAN_MOTION_DOT": 7.828e-05, "MEAN_MOTION_DDOT": 0}, "tle": {"line1": "1 33836U 93036CD  25360.11284498  .00007828  00000+0  10374-2 0  9998", "line2": "2 33836  73.9961 232.5585 0022936  80.6181  40.9444 14.79839055642868"}}, "geometry": {"type": "Point", "coordinates": [-129.15993638233257, -4.28218413544526]}}, {"type": "Feature", "properties": {"norad_id": 33837, "name": "COSMOS 2251 DEB", "group": "cosmos-2251-debris", "lat": -6.072160003052493, "lon": 28.20741603242041, "alt_km": 732.8563905706142, "timestamp": "2025-12-26T08:37:54.972417+00:00", "meta": {"OBJECT_NAME": "COSMOS 2251 DEB", "OBJECT_ID": "1993-036CE", "EPOCH": "2025-12-26T03:41:45.569760", "MEAN_MOTION": 14.50728432, "ECCENTRICITY": 0.0035862, "INCLINATION": 74.0122, "RA_OF_ASC_NODE": 30.3422, "ARG_OF_PERICENTER": 249.9415, "MEAN_ANOMALY": 109.7884, "EPHEMERIS_TYPE": 0, "CLASSIFICATION_TYPE": "U", "NORAD_CAT_ID": 33837, "ELEMENT_SET_NO": 999, "REV_AT_EPOCH": 88990, "BSTAR": 0.00024128, "MEAN_MOTION_DOT": 9.28e-06, "MEAN_MOTION_DDOT": 0}, "tle": {"line1": "1 33837U 93036CE  25360.15399965  .00000928  00000+0  24128-3 0  9996", "line2": "2 33837  74.0122  30.3422 0035862 249.9415 109.7884 14.50728432889901"}}, "geometry": {"type": "Point", "coordinates": [28.20741603242041, -6.072160003052493]}}, {"type": "Feature", "properties": {"norad_id": 33838, "name": "COSMOS 2251 DEB", "group": "cosmos-2251-debris", "lat": 63.50563007920374, "lon": -90.74057524414133, "alt_km": 737.5951998356559, "timestamp": "2025-12-26T08:37:54.972428+00:00", "meta": {"OBJECT_NAME": "COSMOS 2251 DEB", "OBJECT_ID": "1993-036CF", "EPOCH": "2025-12-25T19:25:45.372288", "MEAN_MOTION": 14.48403087, "ECCENTRICITY": 0.00274806, "INCLINATION": 74.0365, "RA_OF_ASC_NODE": 125.3369, "ARG_OF_PERICENTER": 245.478, "MEAN_ANOMALY": 238.8832, "EPHEMERIS_TYPE": 0, "CLASSIFICATION_TYPE": "U", "NORAD_CAT_ID": 33838, "ELEMENT_SET_NO": 999, "REV_AT_EPOCH": 88758, "BSTAR": 0.00045471121, "MEAN_MOTION_DOT": 1.684e-05, "MEAN_MOTION_DDOT": 0}, "tle": {"line1": "1 33838U 93036CF  25359.80955292  .00001684  00000+0  45471-3 0  9992", "line2": "2 33838  74.0365 125.3369 0027480 245.4780 238.8832 14.48403087887581"}}, "geometry": {"type": "Point", "coordinates": [-90.74057524414133, 63.50563007920374]}}, {"type": "Feature", "properties": {"norad_id": 33839, "name": "COSMOS 2251 DEB", "group": "cosmos-2251-debris", "lat": 68.51477458509946, "lon": -46.342479564600474, "alt_km": 731.8676155858939, "timestamp": "2025-12-26T08:37:54.972438+00:00", "meta": {"OBJECT_NAME": "COSMOS 2251 DEB", "OBJECT_ID": "1993-036CG", "EPOCH": "2025-12-25T12:37:08.860800", "MEAN_MOTION": 14.64450648, "ECCENTRICITY": 0.0085374, "INCLINATION": 74.0373, "RA_OF_ASC_NODE": 181.9107, "ARG_OF_PERICENTER": 291.0826, "MEAN_ANOMALY": 99.0176, "EPHEMERIS_TYPE": 0, "CLASSIFICATION_TYPE": "U", "NORAD_CAT_ID": 33839, "ELEMENT_SET_NO": 999, "REV_AT_EPOCH": 89767, "BSTAR": 0.00022045, "MEAN_MOTION_DOT": 1.196e-05, "MEAN_MOTION_DDOT": 0}, "tle": {"line1": "1 33839U 93036CG  25359.52579700  .00001196  00000+0  22045-3 0  9998", "line2": "2 33839  74.0373 181.9107 0085374 291.0826  99.0176 14.64450648897675"}}, "geometry": {"type": "Point", "coordinates": [-46.342479564600474, 68.51477458509946]}}]}